# From MPC102099
P/2016 P1 (PANSTARRS),e,24.4212,319.5370,270.4614,3.199224,0.1722412,0.28938122,93.3072,12/05.0/2022,2000,g 15.0,4.0
# From MPEC 2022-M21
C/2016 Q2 (PANSTARRS),h,05/12.3482/2021,109.3834,322.3079,84.5557,1.002804,7.081948,2000,6.0,4.0
# From MPC102955
C/2016 Q4 (Kowalski),e,7.2468,271.2958,99.6642,17.01806,0.0140391,0.58302126,24.8292,12/05.0/2022,2000,g  7.0,4.0
# From MPEC 2021-N06
C/2016 R2 (PANSTARRS),e,58.3222,80.5164,33.0954,476.4408,0.0000948,0.99454968,0.0000,05/09.1742/2018,2000,g  7.0,4.0
# From MPEC 2022-K19
P/2016 R4 (Gibbs),e,10.8776,168.2615,174.1262,5.332566,0.0800386,0.47624002,186.0780,12/05.0/2022,2000,g 12.5,4.0
# From MPC105543
P/2016 S1 (PANSTARRS),e,94.7282,227.6470,273.2578,8.276085,0.0413968,0.71032044,86.4934,12/05.0/2022,2000,g 12.0,4.0
# From MPC106345
P/2016 WM48 (Lemmon),e,117.5766,59.9322,36.1382,8.168929,0.0422140,0.78348649,89.0985,12/05.0/2022,2000,g 15.0,4.0
# From MPEC 2021-P47
C/2016 X1 (Lemmon),e,26.4581,256.3457,224.4770,1342,0.0000200,0.99437093,0.0000,04/27.8443/2019,2000,g  6.0,4.0
# From MPC114598
C/2017 AB5 (PANSTARRS),e,32.4650,42.5968,78.2818,2628,0.0000073,0.99649750,0.0000,02/14.5265/2018,2000,g  5.5,4.0
# From MPEC 2022-OB6
C/2017 B3 (LINEAR),h,02/01.5352/2019,54.1587,2.1750,284.8307,1.000351,3.929104,2000,6.0,4.0
# From MPC103847
P/2017 B4 (PANSTARRS),e,20.0584,121.4578,11.0197,4.410520,0.1064068,0.36495152,359.9130,01/05.0/2017,2000,g 14.5,4.0
# From MPEC 2022-OB6
P/2017 D1 (Fuls),e,20.7664,82.1884,7.9530,4.827944,0.0929096,0.43690444,218.8968,12/05.0/2022,2000,g 14.0,4.0
# From MPEC 2022-OB6
P/2017 D4 (PANSTARRS),e,10.5480,264.9436,212.1366,7.549079,0.0475185,0.62891630,108.4319,12/05.0/2022,2000,g 13.0,4.0
# From MPC111769
C/2017 F1 (Lemmon),h,11/27.8487/2017,146.4688,158.7865,64.7223,1.001340,4.500580,2000,10.5,4.0
# From MPC114598
C/2017 F2 (PANSTARRS),h,11/25.4934/2017,42.5594,38.7093,134.8762,1.001713,6.922806,2000,7.5,4.0
# From MPC104794
P/2017 G1 (PANSTARRS),e,4.7834,249.6723,224.3609,7.275851,0.0502202,0.65366674,121.1677,12/05.0/2022,2000,g 13.5,4.0
# From MPC108595
P/2017 G2 (PANSTARRS),e,47.9599,79.8383,105.4169,8.051758,0.0431388,0.64753651,86.4835,12/05.0/2022,2000,g 13.0,4.0
# From MPC115882
C/2017 K1 (PANSTARRS),h,03/17.8050/2018,154.0219,225.7335,4.4145,1.003395,7.282699,2000,7.0,4.0
# From MPEC 2022-V95
C/2017 K2 (PANSTARRS),h,12/19.6862/2022,87.5631,88.2354,236.1999,1.000815,1.796887,2000,1.5,4.0
# From MPEC 2021-N06
P/2017 K3 (Gasparovic),e,4.2733,354.2940,253.4241,5.584854,0.0746769,0.57916096,150.6085,12/05.0/2022,2000,g 14.5,4.0
# From MPC114598
C/2017 K4 (ATLAS),e,16.6603,298.9205,15.3529,28.70221,0.0064096,0.90724243,11.4855,12/05.0/2022,2000,g 10.0,4.0
# From MPEC 2021-P47
C/2017 K5 (PANSTARRS),h,03/27.3890/2020,82.2520,102.3868,172.0697,1.005207,7.684161,2000,5.0,4.0
# From MPC114599
C/2017 K6 (Jacques),e,57.2184,84.8837,303.8251,1258,0.0000221,0.99841296,0.0000,01/04.0729/2018,2000,g 11.0,4.0
# From MPEC 2022-OB6
C/2017 M4 (ATLAS),h,01/17.9774/2019,105.6396,65.9655,167.6079,1.001258,3.251898,2000,6.0,4.0
# From MPC118841
C/2017 M5 (TOTAS),h,06/04.1950/2018,15.8619,216.2888,92.8692,1.005069,6.005298,2000,6.5,4.0
# From MPC114599
P/2017 P1 (PANSTARRS),e,7.6895,221.3648,122.7148,7.912979,0.0442786,0.31086907,72.0071,12/05.0/2022,2000,g 10.0,4.0
# From MPC114599
C/2017 P2 (PANSTARRS),e,50.0490,165.4646,132.5258,2541,0.0000077,0.99902483,0.0000,12/05.7321/2017,2000,g 10.0,4.0
# From MPC114599
C/2017 S3 (PANSTARRS),h,08/16.6966/2018,99.2010,171.2992,255.8104,1.000092,0.205061,2000,12.9,4.0
# From MPC109591
C/2017 S6 (Catalina),h,02/26.2150/2018,152.8639,131.1300,135.0347,1.000979,1.551979,2000,12.5,4.0
# From MPEC 2022-OB6
P/2017 S8 (PANSTARRS),e,29.8486,191.5190,254.8536,2.777895,0.2128778,0.39077239,17.2009,12/05.0/2022,2000,g 16.0,4.0
# From MPC107050
P/2017 S9 (PANSTARRS),e,14.1405,146.2222,237.5530,3.156887,0.1757177,0.30580561,345.2112,12/05.0/2022,2000,g 17.0,4.0
# From MPC114600
C/2017 T1 (Heinze),e,96.9173,102.5782,97.0369,10646,0.0000009,0.99994495,0.0000,02/20.6137/2018,2000,g 14.5,4.0
# From MPEC 2021-Y10
C/2017 T2 (PANSTARRS),e,57.2600,64.4084,92.9324,1611,0.0000152,0.99899814,0.0000,05/04.8030/2020,2000,g  5.0,4.0
# From MPC114600
C/2017 T3 (ATLAS),e,88.2460,230.2210,246.8021,1231,0.0000228,0.99933110,0.0000,07/19.1669/2018,2000,g 10.0,4.0
# From MPC115882
P/2017 TW13 (Lemmon),e,44.8498,322.2626,119.9121,7.135751,0.0517064,0.71021769,84.1397,12/05.0/2022,2000,g 15.0,2.0
# From MPEC 2022-K19
P/2017 U3 (PANSTARRS),e,15.9184,165.1086,296.2953,4.925114,0.0901736,0.09957230,120.1908,12/05.0/2022,2000,g 11.0,4.0
# From MPEC 2021-P47
C/2017 U4 (PANSTARRS),e,158.2028,245.9121,158.9749,19068,0.0000004,0.99959497,0.0000,09/21.7217/2018,2000,g  7.0,4.0
# From MPC114600
C/2017 U5 (PANSTARRS),e,18.9771,163.0848,262.0027,16.91145,0.0141721,0.74483928,25.6700,12/05.0/2022,2000,g 12.0,4.0
# From MPEC 2022-PB4
C/2017 U7 (PANSTARRS),h,09/15.1751/2019,142.6109,276.2640,326.4174,1.001505,6.427883,2000,8.3,2.0
# From MPC114601
P/2017 W3 (Gibbs),e,18.1678,210.2148,327.8215,7.832297,0.0449646,0.50634831,78.3363,12/05.0/2022,2000,g 10.5,4.0
# From MPEC 2021-R75
C/2017 X1 (PANSTARRS),e,31.3341,251.1535,283.1495,31.02622,0.0057031,0.84965499,9.3246,12/05.0/2022,2000,g 10.0,4.0
# From MPEC 2022-QD9
C/2017 Y2 (PANSTARRS),h,11/05.0786/2020,128.4341,66.0088,147.9352,1.001376,4.632836,2000,15.0,4.0
# From MPC111770
P/2017 Y3 (Leonard),e,27.5629,153.8540,67.5854,9.823266,0.0320125,0.86948103,56.3519,12/05.0/2022,2000,g 16.5,4.0
# From MPEC 2021-P47
C/2018 A3 (ATLAS),e,139.5369,194.2929,86.3505,371.4044,0.0001377,0.99117370,0.0000,01/11.0485/2019,2000,g  8.5,4.0
# From MPC114601
C/2018 A4 (PANSTARRS),e,3.1504,97.5843,355.9578,12.18393,0.0231752,0.80379817,38.4863,12/05.0/2022,2000,g 14.0,4.0
# From MPC109147
P/2018 A5 (PANSTARRS),e,23.6070,87.7935,359.4874,5.628792,0.0738042,0.52330684,140.0778,12/05.0/2022,2000,g 15.0,4.0
# From MPEC 2022-ST7
C/2018 A6 (Gibbs),e,77.0584,340.3820,264.3573,15.05807,0.0168675,0.79959212,20.9542,12/05.0/2022,2000,g  9.0,4.0
# From MPEC 2022-O08
C/2018 B1 (Lemmon),e,162.4179,133.1922,68.3982,4082,0.0000038,0.99874310,0.0000,03/27.4433/2018,2000,g  9.0,4.0
# From MPC114601
P/2018 C1 (Lemmon-Read),e,5.1120,270.3368,235.6972,5.652682,0.0733368,0.53203324,128.0119,12/05.0/2022,2000,g 13.5,4.0
# From MPC114601
C/2018 C2 (Lemmon),h,05/31.3531/2018,34.4633,91.2458,134.0212,1.000014,1.960812,2000,13.0,4.0
# From MPEC 2022-M88
C/2018 DO4 (Lemmon),e,160.4427,251.4354,176.2984,25.35236,0.0077211,0.90482982,9.3115,12/05.0/2022,2000,g 11.0,4.0
# From MPC114602
C/2018 E1 (ATLAS),e,72.5048,146.8401,299.2887,53.85930,0.0024935,0.95000661,4.2188,12/05.0/2022,2000,g 10.5,4.0
# From MPEC 2022-N37
C/2018 E2 (Barros),e,97.6207,67.1516,277.4447,2753,0.0000068,0.99857600,0.0000,12/23.6213/2017,2000,g 10.5,4.0
# From MPC114602
C/2018 EN4 (NEOWISE),e,81.9325,136.1284,35.0266,17.92251,0.0129899,0.91847409,21.3911,12/05.0/2022,2000,g 15.0,4.0
# From MPC114602
C/2018 EF9 (Lemmon),e,84.6209,172.5564,72.6321,457.0446,0.0001009,0.99658344,0.0000,05/21.2994/2018,2000,g 18.0,2.0
# From MPEC 2021-R75
C/2018 F1 (Grauer),e,46.0786,177.2760,71.5913,242.8895,0.0002604,0.98766130,0.0000,12/12.1151/2018,2000,g 11.5,4.0
# From MPEC 2021-W31
C/2018 F4 (PANSTARRS),e,78.0842,26.5156,263.2222,19714,0.0000004,0.99982534,0.0000,12/03.3047/2019,2000,g 11.0,6.0
# From MPEC 2021-Y10
C/2018 F4-A,e,78.0844,26.5158,263.2190,15186,0.0000005,0.99977327,0.0000,12/03.2929/2019,2000,g 11.0,6.0
# From MPEC 2021-W31
C/2018 F4-B,e,78.0852,26.5154,263.2041,26379,0.0000002,0.99986948,0.0000,12/03.2291/2019,2000,g 11.0,6.0
# From MPC114602
P/2018 H2 (PANSTARRS),e,7.4181,67.9131,120.0619,4.383360,0.1073973,0.54221542,191.3796,12/05.0/2022,2000,g 16.6,2.0
# From MPC114602
C/2018 K1 (Weiland),e,164.1884,260.1743,325.2410,30.20987,0.0059358,0.93772350,10.1039,12/05.0/2022,2000,g 14.9,4.0
# From MPEC 2021-R75
C/2018 KJ3 (Lemmon),e,136.6772,91.6490,217.6697,954.7844,0.0000334,0.99620071,0.0000,09/09.9829/2019,2000,g 12.2,2.0
# From MPC114602
P/2018 L1 (PANSTARRS),e,10.5804,268.6167,18.0381,3.653592,0.1411315,0.48188996,209.4706,12/05.0/2022,2000,g 15.0,4.0
# From MPEC 2021-P47
C/2018 L2 (ATLAS),e,67.2671,243.0035,56.3243,258.3803,0.0002373,0.99335905,0.0000,12/02.2746/2018,2000,g 10.0,4.0
# From MPC114603
P/2018 L4 (PANSTARRS),e,26.6194,145.1705,140.6204,4.945188,0.0896251,0.65914939,142.3341,12/05.0/2022,2000,g 17.5,4.0
# From MPC119996
P/2018 L5 (Leonard),e,2.2087,219.0456,93.9561,3.628877,0.1425758,0.36429363,238.7248,12/05.0/2022,2000,g 14.5,4.0
# From MPC117070
C/2018 M1 (Catalina),e,37.2882,339.4160,14.2370,21.49314,0.0098913,0.93928250,15.9066,12/05.0/2022,2000,g 15.5,4.0
# From MPEC 2022-M21
C/2018 N1 (NEOWISE),e,159.4147,292.5284,354.7287,506.6691,0.0000864,0.99741549,0.0000,08/02.7674/2018,2000,g 15.5,4.0
# From MPEC 2022-L66
C/2018 N2 (ASASSN),h,11/11.3050/2019,77.5527,25.2052,24.4750,1.000849,3.127341,2000,6.0,4.0
# From MPC114603
C/2018 O1 (ATLAS),e,154.0040,87.7730,162.7034,28.08565,0.0066218,0.94450546,10.3006,12/05.0/2022,2000,g 17.0,4.0
# From MPEC 2022-M21
P/2018 P3 (PANSTARRS),e,8.9144,59.1592,305.9779,3.004365,0.1892671,0.41711875,286.8119,12/05.0/2022,2000,g 14.5,4.0
# From MPC114603
P/2018 P4 (PANSTARRS),e,23.1091,353.0629,8.4166,6.683753,0.0570392,0.45061333,84.8118,12/05.0/2022,2000,g 12.0,4.0
# From MPEC 2021-P47
C/2018 P5 (PANSTARRS),e,7.2472,216.2009,131.9503,12.84253,0.0214155,0.64291962,29.4658,12/05.0/2022,2000,g 11.0,4.0
# From MPC118841
C/2018 R3 (Lemmon),e,69.7172,324.6003,112.7455,1562,0.0000160,0.99917802,0.0000,06/07.7270/2019,2000,g  9.5,4.0
# From MPEC 2022-M21
C/2018 R4 (Fuls),e,11.6701,298.5298,345.3225,346.5477,0.0001528,0.99502817,0.0000,03/02.6891/2018,2000,g 14.0,4.0
# From MPC114603
C/2018 R5 (Lemmon),e,103.7488,171.1161,178.1905,22.88619,0.0090021,0.84132368,12.8256,12/05.0/2022,2000,g 11.5,4.0
# From MPEC 2022-QC6
C/2018 S2 (TESS),e,64.1580,85.1024,290.8002,14.35870,0.0181147,0.61879362,26.9791,12/05.0/2022,2000,g  7.5,4.0
